{"type":"FeatureCollection","features":[{"type":"Feature","properties":{"name":"Castro Pretorio"},"geometry":{"type":"MultiPolygon","coordinates":[[[[12.49068,41.90193],[12.49409,41.90429],[12.5015,41.90943],[12.50261,41.90847],[12.50459,41.90809],[12.50828,41.90911],[12.51081,41.9041],[12.50712,41.90276],[12.51094,41.89669],[12.50081,41.9034],[12.49815,41.90177],[12.50158,41.89982],[12.49957,41.89764],[12.49759,41.89867],[12.49716,41.89841],[12.49068,41.90193]]]]}},{"type":"Feature","properties":{"name":"Monti"},"geometry":{"type":"MultiPolygon","coordinates":[[[[12.48708,41.89956],[12.49068,41.90193],[12.49716,41.89841],[12.49759,41.89867],[12.49957,41.89764],[12.49927,41.89675],[12.50467,41.88717],[12.50579,41.8873],[12.50845,41.88634],[12.50893,41.88586],[12.50606,41.88481],[12.50495,41.88411],[12.50349,41.88339],[12.50318,41.88329],[12.50128,41.88324],[12.4992,41.88247],[12.49798,41.88247],[12.49665,41.88327],[12.49562,41.88535],[12.49695,41.88535],[12.49961,41.8865],[12.50137,41.88704],[12.503,41.88742],[12.50025,41.88825],[12.49808,41.88899],[12.49444,41.89006],[12.49389,41.89025],[12.49397,41.89059],[12.493,41.89094],[12.4918,41.89113],[12.49141,41.891],[12.49107,41.89062],[12.49077,41.89119],[12.48334,41.8956],[12.4848,41.89608],[12.48673,41.89632],[12.48699,41.8963],[12.48691,41.89752],[12.48669,41.89784],[12.48678,41.89902],[12.48708,41.89956]]]]}},{"type":"Feature","properties":{"name":"Esquilino"},"geometry":{"type":"MultiPolygon","coordinates":[[[[12.49957,41.89764],[12.50158,41.89982],[12.49815,41.90177],[12.50081,41.9034],[12.51094,41.89669],[12.51377,41.89423],[12.51459,41.89344],[12.51577,41.89286],[12.51536,41.89146],[12.51484,41.89095],[12.516,41.89038],[12.51699,41.88996],[12.51888,41.88914],[12.5178,41.88784],[12.51687,41.88759],[12.51513,41.88732],[12.51468,41.88753],[12.51229,41.88671],[12.50995,41.88611],[12.50893,41.88586],[12.50845,41.88634],[12.50579,41.8873],[12.50467,41.88717],[12.49927,41.89675],[12.49957,41.89764]]]]}},{"type":"Feature","properties":{"name":"Sallustiano"},"geometry":{"type":"MultiPolygon","coordinates":[[[[12.5015,41.90943],[12.49409,41.90429],[12.49345,41.90498],[12.49088,41.90589],[12.49126,41.90622],[12.4915,41.90657],[12.4915,41.90707],[12.49242,41.90742],[12.49203,41.90798],[12.49697,41.90929],[12.49836,41.91089],[12.5015,41.90943]]]]}},{"type":"Feature","properties":{"name":"Testaccio"},"geometry":{"type":"MultiPolygon","coordinates":[[[[12.48171,41.87654],[12.48105,41.87656],[12.4771,41.87452],[12.47472,41.87311],[12.47226,41.87286],[12.47081,41.87597],[12.47036,41.87763],[12.47092,41.87934],[12.47283,41.88113],[12.47585,41.88295],[12.47916,41.87873],[12.48034,41.87729],[12.48171,41.87654]]]]}},{"type":"Feature","properties":{"name":"Ludovisi"},"geometry":{"type":"MultiPolygon","coordinates":[[[[12.49836,41.91089],[12.49697,41.90929],[12.49203,41.90798],[12.49242,41.90742],[12.4915,41.90707],[12.4915,41.90657],[12.49126,41.90622],[12.49088,41.90589],[12.48869,41.90414],[12.48791,41.90507],[12.48748,41.9056],[12.48594,41.9051],[12.48586,41.90669],[12.4862,41.90732],[12.48704,41.90835],[12.48828,41.90942],[12.48989,41.90956],[12.49066,41.90986],[12.49214,41.91072],[12.49373,41.91095],[12.49836,41.91089]]]]}},{"type":"Feature","properties":{"name":"Trevi"},"geometry":{"type":"MultiPolygon","coordinates":[[[[12.49345,41.90498],[12.49409,41.90429],[12.49068,41.90193],[12.48708,41.89956],[12.48678,41.89902],[12.48669,41.89784],[12.48691,41.89752],[12.48699,41.8963],[12.48673,41.89632],[12.4848,41.89608],[12.48334,41.8956],[12.48287,41.89583],[12.48266,41.89637],[12.48221,41.89661],[12.48106,41.8994],[12.48082,41.90011],[12.48185,41.90035],[12.48127,41.90172],[12.48143,41.90181],[12.48132,41.90227],[12.48348,41.90288],[12.48418,41.90251],[12.48802,41.90348],[12.48869,41.90414],[12.49088,41.90589],[12.49345,41.90498]]]]}},{"type":"Feature","properties":{"name":"Colonna"},"geometry":{"type":"MultiPolygon","coordinates":[[[[12.48594,41.9051],[12.48748,41.9056],[12.48869,41.90414],[12.48847,41.90386],[12.48802,41.90348],[12.48418,41.90251],[12.48348,41.90288],[12.48132,41.90227],[12.48143,41.90181],[12.48127,41.90172],[12.48185,41.90035],[12.48082,41.90011],[12.48106,41.8994],[12.47955,41.8992],[12.47809,41.89904],[12.47689,41.8991],[12.47691,41.89947],[12.47671,41.90003],[12.47663,41.90004],[12.47653,41.90052],[12.47658,41.90104],[12.47655,41.90119],[12.47633,41.90124],[12.47654,41.90122],[12.47668,41.90118],[12.47686,41.90116],[12.47779,41.90246],[12.4777,41.90325],[12.478,41.90371],[12.47927,41.90379],[12.48302,41.90463],[12.48313,41.90434],[12.48345,41.90378],[12.48568,41.90397],[12.48594,41.9051]]]]}},{"type":"Feature","properties":{"name":"Campo Marzio"},"geometry":{"type":"MultiPolygon","coordinates":[[[[12.48828,41.90942],[12.48704,41.90835],[12.4862,41.90732],[12.48586,41.90669],[12.48594,41.9051],[12.48568,41.90397],[12.48345,41.90378],[12.48302,41.90463],[12.47927,41.90379],[12.478,41.90371],[12.4777,41.90325],[12.47779,41.90246],[12.47686,41.90116],[12.47633,41.90124],[12.4763,41.90149],[12.47577,41.90163],[12.47494,41.90173],[12.47434,41.90176],[12.47417,41.90183],[12.47393,41.90185],[12.47344,41.90292],[12.47478,41.90426],[12.47526,41.90592],[12.4748,41.90739],[12.47253,41.91087],[12.47598,41.91162],[12.48105,41.91304],[12.48169,41.91039],[12.48463,41.90866],[12.4857,41.90852],[12.48759,41.90946],[12.48828,41.90942]]]]}},{"type":"Feature","properties":{"name":"Pigna"},"geometry":{"type":"MultiPolygon","coordinates":[[[[12.48221,41.89661],[12.482,41.89629],[12.48238,41.89541],[12.47985,41.89498],[12.47629,41.89492],[12.4765,41.89911],[12.47654,41.89948],[12.47643,41.90003],[12.47663,41.90004],[12.47671,41.90003],[12.47691,41.89947],[12.47689,41.8991],[12.47809,41.89904],[12.48106,41.8994],[12.48221,41.89661]]]]}},{"type":"Feature","properties":{"name":"Sant'Eustachio"},"geometry":{"type":"MultiPolygon","coordinates":[[[[12.47663,41.90004],[12.47643,41.90003],[12.47654,41.89948],[12.47629,41.89492],[12.47638,41.89451],[12.47654,41.8945],[12.47655,41.89399],[12.47638,41.89401],[12.47606,41.89401],[12.47534,41.89405],[12.47487,41.89409],[12.47425,41.89426],[12.47433,41.89455],[12.47433,41.89475],[12.4742,41.89523],[12.47401,41.89559],[12.47405,41.89586],[12.47403,41.89654],[12.47425,41.89654],[12.47418,41.89718],[12.47404,41.89781],[12.47398,41.89807],[12.47382,41.90026],[12.47368,41.90044],[12.47388,41.90053],[12.47413,41.90056],[12.47403,41.90104],[12.47405,41.90134],[12.47434,41.90176],[12.47494,41.90173],[12.47577,41.90163],[12.4763,41.90149],[12.47633,41.90124],[12.47654,41.90122],[12.47658,41.90104],[12.47653,41.90052],[12.47663,41.90004]]]]}},{"type":"Feature","properties":{"name":"Ponte"},"geometry":{"type":"MultiPolygon","coordinates":[[[[12.47344,41.90292],[12.47393,41.90185],[12.47417,41.90183],[12.47434,41.90176],[12.47405,41.90134],[12.47403,41.90104],[12.47413,41.90056],[12.47388,41.90053],[12.47368,41.90044],[12.47328,41.90048],[12.47277,41.90047],[12.47268,41.90052],[12.47258,41.90046],[12.47255,41.90033],[12.47228,41.9],[12.47224,41.89987],[12.4723,41.89923],[12.47147,41.89921],[12.47118,41.89927],[12.47123,41.89933],[12.47066,41.89956],[12.4696,41.89889],[12.46927,41.89916],[12.46889,41.89923],[12.46859,41.89926],[12.46844,41.8984],[12.46827,41.89822],[12.46757,41.89767],[12.46745,41.89782],[12.46592,41.89685],[12.46478,41.89835],[12.46418,41.89926],[12.46403,41.89979],[12.46431,41.90044],[12.46521,41.90111],[12.4659,41.90124],[12.46766,41.90138],[12.46983,41.90173],[12.47174,41.90223],[12.47344,41.90292]]]]}},{"type":"Feature","properties":{"name":"Parione"},"geometry":{"type":"MultiPolygon","coordinates":[[[[12.46757,41.89767],[12.46827,41.89822],[12.46844,41.8984],[12.46859,41.89926],[12.46889,41.89923],[12.46927,41.89916],[12.4696,41.89889],[12.47066,41.89956],[12.47123,41.89933],[12.47118,41.89927],[12.47147,41.89921],[12.4723,41.89923],[12.47224,41.89987],[12.47228,41.9],[12.47255,41.90033],[12.47258,41.90046],[12.47268,41.90052],[12.47277,41.90047],[12.47328,41.90048],[12.47368,41.90044],[12.47382,41.90026],[12.47396,41.89858],[12.47398,41.89807],[12.47418,41.89718],[12.47425,41.89654],[12.47403,41.89654],[12.47405,41.89586],[12.47401,41.89559],[12.4742,41.89523],[12.47433,41.89475],[12.47433,41.89455],[12.47425,41.89426],[12.47357,41.89451],[12.47264,41.89516],[12.47027,41.89649],[12.46999,41.89668],[12.46985,41.89681],[12.46977,41.89697],[12.46978,41.89716],[12.46951,41.89723],[12.46897,41.8973],[12.46843,41.89736],[12.46795,41.89739],[12.46757,41.89767]]]]}},{"type":"Feature","properties":{"name":"Regola"},"geometry":{"type":"MultiPolygon","coordinates":[[[[12.46592,41.89685],[12.46745,41.89782],[12.46757,41.89767],[12.46795,41.89739],[12.46843,41.89736],[12.46951,41.89723],[12.46978,41.89716],[12.46977,41.89697],[12.46985,41.89681],[12.46999,41.89668],[12.47027,41.89649],[12.47264,41.89516],[12.47357,41.89451],[12.47425,41.89426],[12.47487,41.89409],[12.47604,41.89402],[12.47638,41.89401],[12.47639,41.89375],[12.47631,41.89359],[12.4762,41.89343],[12.47684,41.89319],[12.47661,41.89269],[12.47645,41.89247],[12.47648,41.89186],[12.47442,41.89169],[12.47335,41.89168],[12.47264,41.89186],[12.47207,41.89212],[12.47122,41.89267],[12.46748,41.89562],[12.46592,41.89685]]]]}},{"type":"Feature","properties":{"name":"Sant'Angelo"},"geometry":{"type":"MultiPolygon","coordinates":[[[[12.47648,41.89186],[12.47645,41.89247],[12.47661,41.89269],[12.47684,41.89319],[12.4762,41.89343],[12.47636,41.89369],[12.47638,41.89401],[12.47655,41.89399],[12.47654,41.8945],[12.47638,41.89451],[12.47629,41.89492],[12.47985,41.89498],[12.48024,41.89489],[12.48079,41.89451],[12.48042,41.89435],[12.48024,41.89435],[12.4799,41.89417],[12.47942,41.89381],[12.47919,41.89348],[12.48035,41.8926],[12.48049,41.89238],[12.48026,41.89185],[12.4803,41.89146],[12.47994,41.89131],[12.47958,41.89126],[12.47931,41.89135],[12.47869,41.89154],[12.47847,41.89142],[12.47789,41.8917],[12.47719,41.89187],[12.47648,41.89186]]]]}},{"type":"Feature","properties":{"name":"Campitelli"},"geometry":{"type":"MultiPolygon","coordinates":[[[[12.49107,41.89062],[12.49034,41.88869],[12.48918,41.88482],[12.48319,41.88824],[12.48356,41.88862],[12.48375,41.88956],[12.48424,41.89051],[12.48328,41.89075],[12.48289,41.89089],[12.48255,41.89103],[12.48186,41.89105],[12.48137,41.89137],[12.4809,41.89182],[12.48049,41.89238],[12.48035,41.8926],[12.47919,41.89348],[12.47942,41.89381],[12.4799,41.89417],[12.48024,41.89435],[12.48042,41.89435],[12.48079,41.89451],[12.48024,41.89489],[12.47985,41.89498],[12.48238,41.89541],[12.482,41.89629],[12.48221,41.89661],[12.48266,41.89637],[12.48287,41.89583],[12.48334,41.8956],[12.49077,41.89119],[12.49107,41.89062]]]]}},{"type":"Feature","properties":{"name":"Ripa"},"geometry":{"type":"MultiPolygon","coordinates":[[[[12.47847,41.89142],[12.47869,41.89154],[12.47958,41.89126],[12.47994,41.89131],[12.4803,41.89146],[12.48026,41.89185],[12.48049,41.89238],[12.4809,41.89182],[12.48137,41.89137],[12.48186,41.89105],[12.48255,41.89103],[12.48302,41.89083],[12.48328,41.89075],[12.48424,41.89051],[12.48375,41.88956],[12.48356,41.88862],[12.48319,41.88824],[12.48918,41.88482],[12.4889,41.8844],[12.48796,41.88365],[12.48369,41.8803],[12.48234,41.87998],[12.47916,41.87873],[12.47585,41.88295],[12.47894,41.8857],[12.47985,41.88675],[12.48012,41.88774],[12.48017,41.88888],[12.47955,41.89028],[12.47854,41.89118],[12.47813,41.89086],[12.4785,41.89066],[12.47897,41.89031],[12.47927,41.88979],[12.4792,41.88953],[12.4789,41.88967],[12.47834,41.88996],[12.47742,41.89027],[12.47543,41.89082],[12.47433,41.89106],[12.47523,41.89108],[12.47605,41.89132],[12.47676,41.89132],[12.47789,41.89089],[12.47847,41.89142]]]]}},{"type":"Feature","properties":{"name":"Celio"},"geometry":{"type":"MultiPolygon","coordinates":[[[[12.49107,41.89062],[12.49141,41.891],[12.4918,41.89113],[12.493,41.89094],[12.49397,41.89059],[12.49389,41.89025],[12.49808,41.88899],[12.503,41.88742],[12.49961,41.8865],[12.49695,41.88535],[12.49562,41.88535],[12.49663,41.88333],[12.49798,41.88247],[12.49869,41.88239],[12.49867,41.8813],[12.5001,41.87937],[12.50227,41.87819],[12.50263,41.87753],[12.50246,41.87661],[12.50216,41.87598],[12.50268,41.87517],[12.50347,41.87479],[12.50332,41.87429],[12.50251,41.87373],[12.5015,41.87344],[12.5012,41.87437],[12.50075,41.87515],[12.49985,41.87642],[12.49901,41.87734],[12.49644,41.87924],[12.4959,41.87986],[12.4889,41.8844],[12.48918,41.88482],[12.49034,41.88869],[12.49107,41.89062]]]]}},{"type":"Feature","properties":{"name":"San Saba"},"geometry":{"type":"MultiPolygon","coordinates":[[[[12.5015,41.87344],[12.50101,41.87323],[12.49696,41.87322],[12.49517,41.87382],[12.49417,41.87403],[12.4927,41.87378],[12.48822,41.87769],[12.48702,41.87654],[12.48552,41.87624],[12.48171,41.87654],[12.48034,41.87729],[12.47916,41.87873],[12.48234,41.87998],[12.48369,41.8803],[12.4889,41.8844],[12.4959,41.87986],[12.49644,41.87924],[12.49901,41.87734],[12.49985,41.87642],[12.50079,41.8751],[12.5012,41.87437],[12.5015,41.87344]]]]}},{"type":"Feature","properties":{"name":"Trastevere"},"geometry":{"type":"MultiPolygon","coordinates":[[[[12.46256,41.89963],[12.46278,41.89876],[12.46549,41.89578],[12.47033,41.89196],[12.47183,41.8909],[12.47441,41.89042],[12.47715,41.88965],[12.47845,41.88911],[12.47891,41.88829],[12.47901,41.88764],[12.47845,41.88678],[12.47724,41.88555],[12.47462,41.88368],[12.47353,41.88429],[12.47298,41.88383],[12.4722,41.88407],[12.47215,41.88436],[12.47049,41.88421],[12.46994,41.88381],[12.46739,41.88348],[12.4671,41.88306],[12.4662,41.88302],[12.46582,41.88243],[12.46475,41.88284],[12.46377,41.8826],[12.46333,41.88335],[12.46282,41.88393],[12.46211,41.88413],[12.46132,41.88441],[12.46191,41.88619],[12.46119,41.88704],[12.46161,41.88837],[12.46122,41.88878],[12.46086,41.88863],[12.46026,41.88902],[12.46097,41.88979],[12.46074,41.89102],[12.46046,41.89099],[12.45999,41.89149],[12.46028,41.8922],[12.45969,41.89305],[12.45933,41.89344],[12.45852,41.89639],[12.45809,41.89682],[12.45786,41.89854],[12.46056,41.8999],[12.46197,41.89987],[12.46256,41.89963]]]]}},{"type":"Feature","properties":{"name":"Prati"},"geometry":{"type":"MultiPolygon","coordinates":[[[[12.45551,41.90759],[12.45544,41.90798],[12.45491,41.91049],[12.46995,41.91409],[12.47175,41.90933],[12.47341,41.9071],[12.47368,41.9059],[12.47349,41.90491],[12.47294,41.90401],[12.47131,41.90326],[12.46994,41.90294],[12.46822,41.90272],[12.46815,41.90322],[12.46869,41.90431],[12.46727,41.90472],[12.4662,41.90547],[12.46521,41.90454],[12.46382,41.90397],[12.45882,41.90577],[12.45883,41.90641],[12.45672,41.90653],[12.45674,41.90623],[12.4558,41.90643],[12.45551,41.90759]]]]}},{"type":"Feature","properties":{"name":"Borgo"},"geometry":{"type":"MultiPolygon","coordinates":[[[[12.45786,41.89854],[12.45644,41.90038],[12.45654,41.90125],[12.45721,41.90113],[12.45794,41.90122],[12.45835,41.90162],[12.45856,41.90231],[12.45807,41.90327],[12.4579,41.90344],[12.45766,41.90357],[12.45777,41.90598],[12.45674,41.90623],[12.45672,41.90653],[12.45883,41.90641],[12.45882,41.90577],[12.46382,41.90397],[12.46521,41.90454],[12.4662,41.90547],[12.46727,41.90472],[12.46869,41.90431],[12.46815,41.90322],[12.46822,41.90272],[12.46661,41.90244],[12.4651,41.90236],[12.46382,41.90146],[12.46302,41.9006],[12.46256,41.89963],[12.46197,41.89987],[12.46056,41.8999],[12.45786,41.89854]]]]}}]}